STARLINK-30780          
1 58140U 23162Y   25247.20151993 -.00000637  00000+0 -32101-4 0  9990
2 58140  43.0049  66.7102 0001221 274.3024  85.7679 15.02534309104245
STARLINK-30802          
1 58150U 23166A   25247.53467209 -.00002872  00000+0 -84903-4 0  9991
2 58150  53.1629   4.5927 0001334  99.7583 260.3569 15.30185949104670
STARLINK-30834          
1 58151U 23166B   25247.53886375 -.00001698  00000+0 -45267-4 0  9996
2 58151  53.1645   4.4143 0001147  69.6892 290.4232 15.30171976104675
STARLINK-30833          
1 58152U 23166C   25247.53256260 -.00001706  00000+0 -45534-4 0  9998
2 58152  53.1613   4.5778 0001646 105.1351 254.9832 15.30164491104671
STARLINK-30831          
1 58153U 23166D   25247.58100159 -.00002514  00000+0 -72852-4 0  9990
2 58153  53.1624   4.1839 0001424  92.1571 267.9593 15.30173308104687
STARLINK-30797          
1 58154U 23166E   25247.54201197 -.00001063  00000+0 -23764-4 0  9997
2 58154  53.1629   4.4260 0001358  93.7616 266.3540 15.30199984104523
STARLINK-30804          
1 58155U 23166F   25247.59154851 -.00002037  00000+0 -56778-4 0  9990
2 58155  53.1622   4.2468 0001066  67.7907 292.3206 15.30152255104680
STARLINK-30784          
1 58156U 23166G   25247.53572486 -.00001437  00000+0 -36419-4 0  9996
2 58156  53.1621   4.6017 0001567 100.5654 259.5523 15.30178732104523
STARLINK-30803          
1 58157U 23166H   25247.57782930 -.00002773  00000+0 -81582-4 0  9993
2 58157  53.1625   4.1468 0001266 103.9476 256.1666 15.30176441104535
STARLINK-30829          
1 58158U 23166J   25247.59467809  .00004590  00000+0  16693-3 0  9998
2 58158  53.1627   4.2651 0001358 111.1568 248.9579 15.30212793104687
STARLINK-30788          
1 58159U 23166K   25247.58838535 -.00004204  00000+0 -13003-3 0  9992
2 58159  53.1602   4.2284 0001441 100.7920 259.3243 15.30166754104535
STARLINK-30779          
1 58160U 23166L   25247.58417342 -.00003633  00000+0 -11074-3 0  9994
2 58160  53.1601   4.2028 0000821  91.1787 268.9307 15.30163710104689
STARLINK-30773          
1 58161U 23166M   25247.56833326 -.00002569  00000+0 -74705-4 0  9995
2 58161  53.1617   4.0872 0001445  91.3883 268.7283 15.30177271104682
STARLINK-30816          
1 58162U 23166N   25247.56517044 -.00002694  00000+0 -78914-4 0  9997
2 58162  53.1612   4.0834 0001317  98.6051 261.5099 15.30176140104681
STARLINK-30763          
1 58163U 23166P   25247.57201910  .00001691  00000+0  69264-4 0  9993
2 58163  53.1617 351.5400 0001356  80.0882 280.0272 15.30177377104857
STARLINK-30815          
1 58164U 23166Q   25247.57462732  .00003206  00000+0  12021-3 0  9997
2 58164  53.1626   4.1459 0001151 119.1784 240.9332 15.30227738104681
