[{"OBJECT_NAME":"STARLINK-30780","OBJECT_ID":"2023-162Y","EPOCH":"2025-09-04T04:50:11.321952","MEAN_MOTION":15.02534309,"ECCENTRICITY":0.00012219,"INCLINATION":43.0049,"RA_OF_ASC_NODE":66.7102,"ARG_OF_PERICENTER":274.3024,"MEAN_ANOMALY":85.7679,"EPHEMERIS_TYPE":0,"CLASSIFICATION_TYPE":"U","NORAD_CAT_ID":58140,"ELEMENT_SET_NO":999,"REV_AT_EPOCH":10424,"BSTAR":-3.2100662e-5,"MEAN_MOTION_DOT":-6.37e-6,"MEAN_MOTION_DDOT":0},{"OBJECT_NAME":"STARLINK-30802","OBJECT_ID":"2023-166A","EPOCH":"2025-09-04T12:49:55.668576","MEAN_MOTION":15.30185949,"ECCENTRICITY":0.00013346,"INCLINATION":53.1629,"RA_OF_ASC_NODE":4.5927,"ARG_OF_PERICENTER":99.7583,"MEAN_ANOMALY":260.3569,"EPHEMERIS_TYPE":0,"CLASSIFICATION_TYPE":"U","NORAD_CAT_ID":58150,"ELEMENT_SET_NO":999,"REV_AT_EPOCH":10467,"BSTAR":-8.490286e-5,"MEAN_MOTION_DOT":-2.872e-5,"MEAN_MOTION_DDOT":0},{"OBJECT_NAME":"STARLINK-30834","OBJECT_ID":"2023-166B","EPOCH":"2025-09-04T12:55:57.828000","MEAN_MOTION":15.30171976,"ECCENTRICITY":0.00011478,"INCLINATION":53.1645,"RA_OF_ASC_NODE":4.4143,"ARG_OF_PERICENTER":69.6892,"MEAN_ANOMALY":290.4232,"EPHEMERIS_TYPE":0,"CLASSIFICATION_TYPE":"U","NORAD_CAT_ID":58151,"ELEMENT_SET_NO":999,"REV_AT_EPOCH":10467,"BSTAR":-4.5266667e-5,"MEAN_MOTION_DOT":-1.698e-5,"MEAN_MOTION_DDOT":0},{"OBJECT_NAME":"STARLINK-30833","OBJECT_ID":"2023-166C","EPOCH":"2025-09-04T12:46:53.408640","MEAN_MOTION":15.30164491,"ECCENTRICITY":0.00016468,"INCLINATION":53.1613,"RA_OF_ASC_NODE":4.5778,"ARG_OF_PERICENTER":105.1351,"MEAN_ANOMALY":254.9832,"EPHEMERIS_TYPE":0,"CLASSIFICATION_TYPE":"U","NORAD_CAT_ID":58152,"ELEMENT_SET_NO":999,"REV_AT_EPOCH":10467,"BSTAR":-4.5534388e-5,"MEAN_MOTION_DOT":-1.706e-5,"MEAN_MOTION_DDOT":0},{"OBJECT_NAME":"STARLINK-30831","OBJECT_ID":"2023-166D","EPOCH":"2025-09-04T13:56:38.537376","MEAN_MOTION":15.30173308,"ECCENTRICITY":0.00014248,"INCLINATION":53.1624,"RA_OF_ASC_NODE":4.1839,"ARG_OF_PERICENTER":92.1571,"MEAN_ANOMALY":267.9593,"EPHEMERIS_TYPE":0,"CLASSIFICATION_TYPE":"U","NORAD_CAT_ID":58153,"ELEMENT_SET_NO":999,"REV_AT_EPOCH":10468,"BSTAR":-7.2851974e-5,"MEAN_MOTION_DOT":-2.514e-5,"MEAN_MOTION_DDOT":0},{"OBJECT_NAME":"STARLINK-30797","OBJECT_ID":"2023-166E","EPOCH":"2025-09-04T13:00:29.834208","MEAN_MOTION":15.30199984,"ECCENTRICITY":0.00013582,"INCLINATION":53.1629,"RA_OF_ASC_NODE":4.426,"ARG_OF_PERICENTER":93.7616,"MEAN_ANOMALY":266.354,"EPHEMERIS_TYPE":0,"CLASSIFICATION_TYPE":"U","NORAD_CAT_ID":58154,"ELEMENT_SET_NO":999,"REV_AT_EPOCH":10452,"BSTAR":-2.3764355e-5,"MEAN_MOTION_DOT":-1.063e-5,"MEAN_MOTION_DDOT":0},{"OBJECT_NAME":"STARLINK-30804","OBJECT_ID":"2023-166F","EPOCH":"2025-09-04T14:11:49.791264","MEAN_MOTION":15.30152255,"ECCENTRICITY":0.00010669,"INCLINATION":53.1622,"RA_OF_ASC_NODE":4.2468,"ARG_OF_PERICENTER":67.7907,"MEAN_ANOMALY":292.3206,"EPHEMERIS_TYPE":0,"CLASSIFICATION_TYPE":"U","NORAD_CAT_ID":58155,"ELEMENT_SET_NO":999,"REV_AT_EPOCH":10468,"BSTAR":-5.677761e-5,"MEAN_MOTION_DOT":-2.037e-5,"MEAN_MOTION_DDOT":0},{"OBJECT_NAME":"STARLINK-30784","OBJECT_ID":"2023-166G","EPOCH":"2025-09-04T12:51:26.627904","MEAN_MOTION":15.30178732,"ECCENTRICITY":0.0001567,"INCLINATION":53.1621,"RA_OF_ASC_NODE":4.6017,"ARG_OF_PERICENTER":100.5654,"MEAN_ANOMALY":259.5523,"EPHEMERIS_TYPE":0,"CLASSIFICATION_TYPE":"U","NORAD_CAT_ID":58156,"ELEMENT_SET_NO":999,"REV_AT_EPOCH":10452,"BSTAR":-3.6419089e-5,"MEAN_MOTION_DOT":-1.437e-5,"MEAN_MOTION_DDOT":0},{"OBJECT_NAME":"STARLINK-30803","OBJECT_ID":"2023-166H","EPOCH":"2025-09-04T13:52:04.451520","MEAN_MOTION":15.30176441,"ECCENTRICITY":0.00012668,"INCLINATION":53.1625,"RA_OF_ASC_NODE":4.1468,"ARG_OF_PERICENTER":103.9476,"MEAN_ANOMALY":256.1666,"EPHEMERIS_TYPE":0,"CLASSIFICATION_TYPE":"U","NORAD_CAT_ID":58157,"ELEMENT_SET_NO":999,"REV_AT_EPOCH":10453,"BSTAR":-8.1582115e-5,"MEAN_MOTION_DOT":-2.773e-5,"MEAN_MOTION_DDOT":0},{"OBJECT_NAME":"STARLINK-30829","OBJECT_ID":"2023-166J","EPOCH":"2025-09-04T14:16:20.186976","MEAN_MOTION":15.30212793,"ECCENTRICITY":0.00013582,"INCLINATION":53.1627,"RA_OF_ASC_NODE":4.2651,"ARG_OF_PERICENTER":111.1568,"MEAN_ANOMALY":248.9579,"EPHEMERIS_TYPE":0,"CLASSIFICATION_TYPE":"U","NORAD_CAT_ID":58158,"ELEMENT_SET_NO":999,"REV_AT_EPOCH":10468,"BSTAR":0.00016693374,"MEAN_MOTION_DOT":4.59e-5,"MEAN_MOTION_DDOT":0},{"OBJECT_NAME":"STARLINK-30788","OBJECT_ID":"2023-166K","EPOCH":"2025-09-04T14:07:16.494240","MEAN_MOTION":15.30166754,"ECCENTRICITY":0.00014416,"INCLINATION":53.1602,"RA_OF_ASC_NODE":4.2284,"ARG_OF_PERICENTER":100.792,"MEAN_ANOMALY":259.3243,"EPHEMERIS_TYPE":0,"CLASSIFICATION_TYPE":"U","NORAD_CAT_ID":58159,"ELEMENT_SET_NO":999,"REV_AT_EPOCH":10453,"BSTAR":-0.00013003009,"MEAN_MOTION_DOT":-4.204e-5,"MEAN_MOTION_DDOT":0},{"OBJECT_NAME":"STARLINK-30779","OBJECT_ID":"2023-166L","EPOCH":"2025-09-04T14:01:12.583488","MEAN_MOTION":15.3016371,"ECCENTRICITY":8.214e-5,"INCLINATION":53.1601,"RA_OF_ASC_NODE":4.2028,"ARG_OF_PERICENTER":91.1787,"MEAN_ANOMALY":268.9307,"EPHEMERIS_TYPE":0,"CLASSIFICATION_TYPE":"U","NORAD_CAT_ID":58160,"ELEMENT_SET_NO":999,"REV_AT_EPOCH":10468,"BSTAR":-0.00011073699,"MEAN_MOTION_DOT":-3.633e-5,"MEAN_MOTION_DDOT":0},{"OBJECT_NAME":"STARLINK-30773","OBJECT_ID":"2023-166M","EPOCH":"2025-09-04T13:38:23.993664","MEAN_MOTION":15.30177271,"ECCENTRICITY":0.00014459,"INCLINATION":53.1617,"RA_OF_ASC_NODE":4.0872,"ARG_OF_PERICENTER":91.3883,"MEAN_ANOMALY":268.7283,"EPHEMERIS_TYPE":0,"CLASSIFICATION_TYPE":"U","NORAD_CAT_ID":58161,"ELEMENT_SET_NO":999,"REV_AT_EPOCH":10468,"BSTAR":-7.470522e-5,"MEAN_MOTION_DOT":-2.569e-5,"MEAN_MOTION_DDOT":0},{"OBJECT_NAME":"STARLINK-30816","OBJECT_ID":"2023-166N","EPOCH":"2025-09-04T13:33:50.726016","MEAN_MOTION":15.3017614,"ECCENTRICITY":0.00013178,"INCLINATION":53.1612,"RA_OF_ASC_NODE":4.0834,"ARG_OF_PERICENTER":98.6051,"MEAN_ANOMALY":261.5099,"EPHEMERIS_TYPE":0,"CLASSIFICATION_TYPE":"U","NORAD_CAT_ID":58162,"ELEMENT_SET_NO":999,"REV_AT_EPOCH":10468,"BSTAR":-7.8913683e-5,"MEAN_MOTION_DOT":-2.694e-5,"MEAN_MOTION_DDOT":0},{"OBJECT_NAME":"STARLINK-30763","OBJECT_ID":"2023-166P","EPOCH":"2025-09-04T13:43:42.450240","MEAN_MOTION":15.30177377,"ECCENTRICITY":0.00013569,"INCLINATION":53.1617,"RA_OF_ASC_NODE":351.54,"ARG_OF_PERICENTER":80.0882,"MEAN_ANOMALY":280.0272,"EPHEMERIS_TYPE":0,"CLASSIFICATION_TYPE":"U","NORAD_CAT_ID":58163,"ELEMENT_SET_NO":999,"REV_AT_EPOCH":10485,"BSTAR":6.9264175e-5,"MEAN_MOTION_DOT":1.691e-5,"MEAN_MOTION_DDOT":0},{"OBJECT_NAME":"STARLINK-30815","OBJECT_ID":"2023-166Q","EPOCH":"2025-09-04T13:47:27.800448","MEAN_MOTION":15.30227738,"ECCENTRICITY":0.00011516,"INCLINATION":53.1626,"RA_OF_ASC_NODE":4.1459,"ARG_OF_PERICENTER":119.1784,"MEAN_ANOMALY":240.9332,"EPHEMERIS_TYPE":0,"CLASSIFICATION_TYPE":"U","NORAD_CAT_ID":58164,"ELEMENT_SET_NO":999,"REV_AT_EPOCH":10468,"BSTAR":0.00012020734,"MEAN_MOTION_DOT":3.206e-5,"MEAN_MOTION_DDOT":0}]
